GLOBALSTAR M035         
1 25851U 99037A   24181.56573376 -.00000050  00000+0  50716-3 0  9994
2 25851  51.9937 121.3369 0013074 129.1307  42.0775 11.04530679 57294
GLOBALSTAR M032         
1 25852U 99037B   24181.77133845  .00000054  00000+0  38579-2 0  9996
2 25852  51.9977 330.3945 0009320 293.5847  66.3973 11.19057636 95389
GLOBALSTAR M051         
1 25853U 99037C   24181.90275702 -.00000045  00000+0  65712-3 0  9992
2 25853  51.9756 170.7281 0001637 305.3356  54.7301 11.42199757 92137
GLOBALSTAR M030         
1 25854U 99037D   24181.80017682 -.00000054  00000+0  43551-3 0  9990
2 25854  51.9902 359.4903 0004387 130.3335 229.7866 11.55096182109328
GLOBALSTAR M048         
1 25872U 99041A   24181.93160986 -.00000068  00000+0  66264-4 0  9997
2 25872  51.9375  92.0722 0013438 297.7911 142.9449 11.33846971 85024
GLOBALSTAR M026         
1 25873U 99041B   24181.87338293 -.00000103  00000+0 -14199-2 0  9998
2 25873  51.9987 242.3209 0001044  21.7959 150.2237 11.06834458109471
GLOBALSTAR M043         
1 25874U 99041C   24181.76902895 -.00000054  00000+0  42716-3 0  9993
2 25874  51.9358 186.0573 0012021  68.7956 102.4721 11.25680086 83180
GLOBALSTAR M028         
1 25875U 99041D   24181.92419571 -.00000060  00000+0  26114-3 0  9997
2 25875  51.9597 163.4310 0063596  26.4028 334.0052 12.50558571146102
